0 DELTA 1 DEB
1 35533U 75052LG  13281.73266329  .00003822  00000-0  19483-2 0  5281
2 35533 099.7506 087.1050 0018510 101.3241 325.1960 14.16319601546772
0 DELTA 1 DEB
1 35533U 75052LG  13283.29737506  .00005561  00000-0  28212-2 0  5297
2 35533 099.7507 088.8171 0018354 096.7951 023.5176 14.16335548546996
0 DELTA 1 DEB
1 35533U 75052LG  13285.27592597  .00004534  00000-0  23047-2 0  5308
2 35533 099.7503 090.9822 0018267 091.0591 032.0930 14.16353657547276
0 DELTA 1 DEB
1 35533U 75052LG  13287.73725935  .00005738  00000-0  29082-2 0  5318
2 35533 099.7495 093.6757 0018112 083.8775 342.5827 14.16375097547620
0 DELTA 1 DEB
1 35533U 75052LG  13289.30194712  .00006103  00000-0  30907-2 0  5322
2 35533 099.7500 095.3880 0017966 078.9964 041.4493 14.16390759547844
0 DELTA 1 DEB
1 35533U 75052LG  13290.41467922  .00006323  00000-0  32004-2 0  5337
2 35533 099.7499 096.6066 0017913 075.7997 315.4165 14.16401601548002
0 DELTA 1 DEB
1 35533U 75052LG  13293.66986376  .00005361  00000-0  27160-2 0  5345
2 35533 099.7509 100.1699 0017875 066.2540 354.4924 14.16434070548465
0 DELTA 1 DEB
1 35533U 75052LG  13295.43485128  .00006414  00000-0  32433-2 0  5351
2 35533 099.7511 102.1018 0017763 060.6190 355.2481 14.16448485548710
